45151,ONEWEB-0045,2020,109.8,148.0,+,87.88,Active,1,LEO,Kazakhstan,UK,Commercial,Communications,Soyuz,1 45151U 20008W   25231.10473733  .00000415  00000+0  11360-2 0  9999,2 45151  87.8792  81.2322 0001807  79.9966 280.1366 13.11417898271592,13.11417898,0.0001807,LEO
45152,ONEWEB-0047,2020,109.89,148.0,+,87.88,Active,1,LEO,Kazakhstan,UK,Commercial,Communications,Soyuz,1 45152U 20008X   25231.15521138  .00001137  00000+0  32198-2 0  9992,2 45152  87.8770  96.5111 0001907  80.7445 279.3898 13.10375614269435,13.10375614,0.0001907,LEO
45153,ONEWEB-0048,2020,109.89,148.0,+,87.88,Active,1,LEO,Kazakhstan,UK,Commercial,Communications,Soyuz,1 45153U 20008Y   25230.92117119  .00000641  00000+0  18003-2 0  9995,2 45153  87.8774  96.5826 0001811  81.2959 278.8374 13.10374059268224,13.10374059,0.0001811,LEO
45154,ONEWEB-0049,2020,109.89,148.0,+,87.88,Active,1,LEO,Kazakhstan,UK,Commercial,Communications,Soyuz,1 45154U 20008Z   25230.92366007  .00000579  00000+0  16228-2 0  9995,2 45154  87.8770  96.5745 0001762  96.3350 263.7978 13.10373022268444,13.10373022,0.0001762,LEO
45155,ONEWEB-0051,2020,109.8,148.0,+,87.88,Active,1,LEO,Kazakhstan,UK,Commercial,Communications,Soyuz,1 45155U 20008AA  25231.48452746  .00000319  00000+0  86336-3 0  9994,2 45155  87.8780  81.1988 0001674  83.2254 276.9064 13.11417745272321,13.11417745,0.0001674,LEO
45156,ONEWEB-0052,2020,109.89,148.0,+,87.88,Active,1,LEO,Kazakhstan,UK,Commercial,Communications,Soyuz,1 45156U 20008AB  25231.14774107  .00000524  00000+0  14648-2 0  9990,2 45156  87.8781  96.4780 0001942  96.9387 263.1961 13.10375313269141,13.10375313,0.0001942,LEO
45157,ONEWEB-0053,2020,109.89,148.0,+,87.88,Active,1,LEO,Kazakhstan,UK,Commercial,Communications,Soyuz,1 45157U 20008AC  25230.90119623 -.00000572  00000+0 -16747-2 0  9997,2 45157  87.8778  96.5839 0002021  75.5385 284.5966 13.10375366269087,13.10375366,0.0002021,LEO
45158,ONEWEB-0054,2020,109.89,148.0,+,87.88,Active,1,LEO,Kazakhstan,UK,Commercial,Communications,Soyuz,1 45158U 20008AD  25231.16517180  .00000480  00000+0  13380-2 0  9993,2 45158  87.8768  96.5044 0001688  83.0057 277.1262 13.10371188269235,13.10371188,0.0001688,LEO
